STARLINK-1115           
1 44973U 20001BM  20035.16667824 -.00008565  00000-0 -56570-4 0  9993
2 44973  52.9961 257.1589 0001207  44.8587 200.8299 15.73233516  4431
FALCON 9 DEB            
1 44974U 20001BN  20034.71924774  .00105518  16177-4  17967-3 0  9990
2 44974  52.9941 255.3747 0005498  40.2489 319.8947 16.02422275  4428
FALCON 9 DEB            
1 44975U 20001BP  20035.02716106  .00046087  12355-4  80754-4 0  9998
2 44975  52.9950 253.7319 0007833  53.5628 306.6122 16.02607365  4472
FALCON 9 DEB            
1 44976U 20001BQ  20035.07271771  .00074093  13870-4  11768-3 0  9997
2 44976  52.9934 253.2960 0003453  67.9202 292.2195 16.03840132  4486
FALCON 9 DEB            
1 44977U 20001BR  20034.69010603  .00143714  20549-4  21280-3 0  9998
2 44977  52.9938 255.1814 0004621 106.6669 253.4869 16.04613578  4420
TJS-5                   
1 44978U 20002A   20035.14575516  .00000053  00000-0  10000-3 0  9992
2 44978   0.9661 282.9486 0001847  20.5761  61.2777  1.00274338   408
CZ-3B R/B               
1 44979U 20002B   20025.81289763  .00098988  13069-5  13682-2 0  9998
2 44979  27.4112 326.7499 7228361 190.9769 134.5459  2.39983624   436
2020-003A               
1 45016U 19003A   20035.21536769  .00000621  00000-0  26108-4 0  9998
2 45016  97.3345 103.7731 0012219 191.3747 168.7218 15.27017832  3066
NUSAT-7 (SOPHIE)        
1 45017U 20003B   20035.22600689  .00000870  00000-0  35204-4 0  9998
2 45017  97.3350 103.7919 0012378 194.8492 243.3716 15.27293376  3064
NUSAT-8 (MARIE)         
1 45018U 20003C   20035.22752221  .00000897  00000-0  36465-4 0  9998
2 45018  97.3360 103.7889 0011914 192.0499 246.0632 15.27058965  3064
2020-003D               
1 45019U 20003D   20035.14495638  .00000741  00000-0  30287-4 0  9990
2 45019  97.3344 103.7149 0012976 198.1467 161.9311 15.27393979  3052
2020-003E               
1 45020U 20003E   20035.16656396  .00001447  00000-0  59308-4 0  9993
2 45020  97.2183 103.3980 0012546  32.9593 327.2426 15.25767917  3061
2020-003F               
1 45021U 20003F   20035.14367691  .00001894  00000-0  73062-4 0  9998
2 45021  97.3688 103.8017 0006660 210.0703 150.0155 15.27514947  3056
2020-003G               
1 45022U 20003G   20035.11822148  .00001881  00000-0  68153-4 0  9990
2 45022  97.2978 103.6585 0019481 222.3935 137.5801 15.29463884  3057
2020-003H               
1 45023U 20003H   20035.00451770  .00003250  00000-0  95577-4 0  9990
2 45023  97.4524 104.0936 0043993 240.0947 242.6293 15.34911138  3001
YINHE-1                 
1 45024U 20004A   20035.16839727  .00000027  00000-0  00000+0 0  9992
2 45024  86.3939  76.2571 0012596 189.4420 170.6565 14.80048799  2804
GSAT-30                 
1 45026U 20005A   20032.18382837 -.00000137  00000-0  00000-0 0  9993
2 45026   0.0950 273.0327 0003029  29.2107 335.6803  1.00270244   189
EUTELSAT KONNECT        
1 45027U 20005B   20034.26458881  .00000039  00000-0  00000+0 0  9997
2 45027   6.0515 251.4635 7002802 187.8479 148.3741  2.10963050   370
ARIANE 5 DEB [SYLDA]    
1 45028U 20005C   20034.13814283 -.00000133  00000-0  00000-0 0  9993
2 45028   5.9857 247.6521 7284199 192.4516 127.4804  2.28284318   396
ARIANE 5 R/B            
1 45029U 20005D   20034.43858834  .00004615  00000-0  45446-3 0  9991
2 45029   5.6785 249.1185 7283417 190.8760 133.7303  2.30155108   405
STPSAT-4                
1 45043U 98067QY  20034.97322124  .00002698  00000-0  56769-4 0  9997
2 45043  51.6434 292.5403 0005495 227.1395 132.9134 15.49194081   979
2019-071C               
1 45113U 19071C   20035.00692685  .00001128  00000-0  46708-4 0  9999
2 45113  51.6448 292.7655 0012546 294.9968  64.9711 15.32820383   503
2019-071D               
1 45114U 19071D   20034.87649036  .00001187  00000-0  48455-4 0  9992
2 45114  51.6427 293.3947 0011399 297.1085  62.8734 15.32862576   481
2019-071E               
1 45115U 19071E   20034.35493017  .00002850  00000-0  10000-3 0  9994
2 45115  51.6477 295.8996 0012638 293.3298  66.5455 15.32833864   387
2019-071F               
1 45116U 19071F   20035.00682122  .00001400  00000-0  55063-4 0  9994
2 45116  51.6443 292.7643 0010953 299.0938  60.8947 15.32853902   533
HUSKYSAT-1              
1 45117U 19071G   20034.87599187  .00002877  00000-0  10000-3 0  9997
2 45117  51.6412 293.3861 0010837 294.0833  65.8877 15.33119947   474
